OBJECT_NAME,OBJECT_ID,EPOCH,MEAN_MOTION,ECCENTRICITY,INCLINATION,RA_OF_ASC_NODE,ARG_OF_PERICENTER,MEAN_ANOMALY,EPHEMERIS_TYPE,CLASSIFICATION_TYPE,NORAD_CAT_ID,ELEMENT_SET_NO,REV_AT_EPOCH,BSTAR,MEAN_MOTION_DOT,MEAN_MOTION_DDOT
SUOMI NPP,2011-061A,2026-06-14T14:11:53.072736,14.19516821,.00016787,98.7954,106.4854,13.1989,346.9230,0,U,37849,999,75807,.42348562E-4,.45E-6,0
YAOGAN-12,2011-066B,2026-06-14T15:27:07.280928,15.26580259,.00085004,97.1143,204.3318,227.0744,132.9783,0,U,37875,999,81165,.33710673E-3,.8762E-4,0
BEIDOU-2 M4,2012-018B,2026-06-13T08:41:38.889888,1.86229521,.00112871,55.6617,304.2191,276.0779,83.7740,0,U,38251,999,9587,0,-.7E-6,0
ARIRANG-3 (KOMPSAT-3),2012-025B,2026-06-14T15:18:11.912832,14.62204109,.0006593,98.1176,123.1415,115.8051,244.3832,0,U,38338,999,75097,.81932636E-4,.366E-5,0
METOP-B,2012-049A,2026-06-14T14:02:36.577248,14.21432037,.00023926,98.6505,217.1362,26.0835,334.0463,0,U,38771,999,71289,.62259501E-4,.93E-6,0
SJ-9A,2012-056A,2026-06-14T14:30:52.787232,14.85474058,.00239459,97.6708,137.6496,265.7572,94.0907,0,U,38860,999,69920,.98817841E-4,.804E-5,0
COSMOS 2484 (RODNIK-S 6),2013-001C,2026-06-14T13:41:12.572160,12.42939048,.00269689,82.5024,223.5193,42.2197,318.0953,0,U,39059,999,60823,.43444156E-3,.7E-6,0
SARAL,2013-009A,2026-06-14T14:19:26.804928,14.32855376,.00008295,98.5555,352.1969,324.7701,35.3428,0,U,39086,999,69523,.46463988E-4,.83E-6,0
STRAND-1,2013-009E,2026-06-14T11:31:12.081216,14.37161905,.0007605,98.3921,345.7811,234.4727,125.5751,0,U,39090,999,69667,.95730291E-4,.242E-5,0
BRITE-AUSTRIA,2013-009F,2026-06-14T11:48:03.543552,14.36541132,.00090575,98.3993,344.9942,245.5657,114.4585,0,U,39091,999,69666,.65712853E-4,.15E-5,0
GAOFEN-1,2013-018A,2026-06-14T14:57:40.596192,14.76534929,.00157083,97.9102,237.7433,275.5588,84.3831,0,U,39150,999,70786,.12993395E-3,.856E-5,0
NEE-01 PEGASO,2013-018B,2026-06-14T07:37:55.184448,14.93647786,.00128351,98.1215,309.3736,168.5620,191.5892,0,U,39151,999,71027,.20906406E-3,.215E-4,0
PROBA-V,2013-021A,2026-06-14T12:26:48.679872,14.23596478,.00050352,98.3582,144.2569,129.6694,230.4931,0,U,39159,999,68073,.42452705E-4,.56E-6,0
ARIRANG-5 (KOMPSAT-5),2013-042A,2026-06-14T13:44:00.994272,15.04485110,.00052098,97.6206,352.3101,126.6933,233.4773,0,U,39227,999,70346,.94839446E-4,.1266E-4,0
GONETS-M 5,2013-048A,2026-06-14T14:52:05.714112,12.42892100,.00159783,82.4827,344.9838,216.2721,143.7277,0,U,39249,999,57856,.69025237E-3,.105E-5,0
GONETS-M 7,2013-048C,2026-06-14T13:58:49.317600,12.42914916,.00167616,82.4895,347.9280,217.7675,142.2229,0,U,39251,999,57851,.64767787E-3,.1E-5,0
FENGYUN 3C,2013-052A,2026-06-14T15:22:55.089696,14.15754480,.00153715,98.4986,139.6326,34.6702,325.5472,0,U,39260,999,65820,.41698743E-4,.41E-6,0
CASSIOPE,2013-055A,2026-06-14T11:19:44.313024,15.24952306,.02936843,80.9158,70.0186,71.5638,291.7279,0,U,39265,999,66725,.52514437E-3,.4797E-3,-.454001E-6
APRIZESAT 7,2013-066A,2026-06-14T14:30:46.937952,14.91558884,.00347994,97.7709,118.8617,217.9769,141.8995,0,U,39416,999,68084,.10538113E-3,.101E-4,0
ZACUBE-1 (TSHEPISOSAT),2013-066B,2026-06-14T11:23:11.253120,15.01175277,.00405094,97.8083,127.7968,257.1667,102.5029,0,U,39417,999,68032,.25183806E-3,.3221E-4,0
APRIZESAT 8,2013-066K,2026-06-14T14:03:08.971200,14.87648345,.00445006,97.8221,113.0897,295.4143,64.2471,0,U,39425,999,67928,.99410849E-4,.863E-5,0
